[{"OBJECT_NAME":"LIZZIESAT-1 (LS-1)","OBJECT_ID":"2024-043AL","EPOCH":"2026-03-09T21:24:55.126944","MEAN_MOTION":15.26635712,"ECCENTRICITY":0.00099234,"INCLINATION":97.5461,"RA_OF_ASC_NODE":203.4772,"ARG_OF_PERICENTER":229.9925,"MEAN_ANOMALY":130.0443,"EPHEMERIS_TYPE":0,"CLASSIFICATION_TYPE":"U","NORAD_CAT_ID":59132,"ELEMENT_SET_NO":999,"REV_AT_EPOCH":11178,"BSTAR":0.0002232873,"MEAN_MOTION_DOT":5.784e-5,"MEAN_MOTION_DDOT":0},{"OBJECT_NAME":"STARLINK-35933","OBJECT_ID":"2025-265P","EPOCH":"2026-03-09T21:53:33.594432","MEAN_MOTION":15.27609192,"ECCENTRICITY":0.00015349,"INCLINATION":43.001,"RA_OF_ASC_NODE":277.0061,"ARG_OF_PERICENTER":264.9236,"MEAN_ANOMALY":95.144,"EPHEMERIS_TYPE":0,"CLASSIFICATION_TYPE":"U","NORAD_CAT_ID":66529,"ELEMENT_SET_NO":999,"REV_AT_EPOCH":1714,"BSTAR":0.00090324602,"MEAN_MOTION_DOT":0.00024699,"MEAN_MOTION_DDOT":0}]
